HELIOS 2A               
1 28492U 04049A   22239.62254790  .00000888  00000+0  90738-4 0  9999
2 28492  98.2376 185.9859 0013644 202.5298 157.5276 14.93282659945744
CFESAT                  
1 30777U 07006F   22239.25197114  .00054424  00000+0  53040-3 0  9998
2 30777  35.4168 188.2813 0005469 291.0394  68.9756 15.65089416860242
SPIRALE A               
1 33751U 09008C   22239.43459590  .00000082  00000+0  40879-3 0  9993
2 33751   1.9869 188.7906 5440212  18.8509 355.1670  4.58859641198074
SPIRALE B               
1 33752U 09008D   22238.98873819  .00003518  00000+0  71498-3 0  9995
2 33752   2.1515  74.8584 6862400 229.8224  47.4391  2.82778150127072
SAPPHIRE                
1 39088U 13009C   22239.50208053  .00000025  00000+0  23948-4 0  9998
2 39088  98.4255  73.4788 0012522  67.8210 292.4303 14.34317770497309
